start=new Date('2022-02-12T00:00:00.000Z').valueOf();
sats=[{"BSTAR":"-0.00796420000000","COUNTRY_CODE":"US","REV_AT_EPOCH":"701","RA_OF_ASC_NODE":"21.0982","DECAY_DATE":null,"PERIOD":"92.182","ELEMENT_SET_NO":"999","GP_ID":"195761018","MEAN_ELEMENT_THEORY":"SGP4","INCLINATION":"53.2174","MEAN_MOTION_DDOT":"0.0000000000000","MEAN_MOTION_DOT":"-0.00657347","SITE":"AFETR","TLE_LINE2":"2 50848  53.2174  21.0982 0001719  34.4997  74.3909 15.62133078  7011","SEMIMAJOR_AXIS":"6759.634","CENTER_NAME":"EARTH","TIME_SYSTEM":"UTC","ARG_OF_PERICENTER":"34.4997","MEAN_MOTION":"15.62133078","REF_FRAME":"TEME","APOAPSIS":"382.661","OBJECT_TYPE":"PAYLOAD","OBJECT_ID":"2022-001AX","FILE":"3297934","LAUNCH_DATE":"2022-01-06","TLE_LINE1":"1 50848U 22001AX  22042.91668981 -.00657347  00000-0 -79642-2 0  9992","NORAD_CAT_ID":"50848","CLASSIFICATION_TYPE":"U","EPHEMERIS_TYPE":"0","RCS_SIZE":"LARGE","MEAN_ANOMALY":"74.3909","EPOCH":"2022-02-11T22:00:01.999584","PERIAPSIS":"380.337","ECCENTRICITY":"0.00017190","OBJECT_NAME":"STARLINK-3315"},{"ARG_OF_PERICENTER":"36.3642","TIME_SYSTEM":"UTC","CENTER_NAME":"EARTH","SEMIMAJOR_AXIS":"6760.646","SITE":"AFETR","MEAN_MOTION_DOT":"-0.00657075","TLE_LINE2":"2 50849  53.2174  21.1015 0001637  36.3642  60.4581 15.61782082  6900","INCLINATION":"53.2174","MEAN_MOTION_DDOT":"0.0000000000000","GP_ID":"195760857","ELEMENT_SET_NO":"999","MEAN_ELEMENT_THEORY":"SGP4","PERIOD":"92.202","DECAY_DATE":null,"RA_OF_ASC_NODE":"21.1015","COUNTRY_CODE":"US","REV_AT_EPOCH":"690","BSTAR":"-0.00807080000000","PERIAPSIS":"381.405","OBJECT_NAME":"STARLINK-3311","ECCENTRICITY":"0.00016370","EPOCH":"2022-02-11T22:00:01.999584","MEAN_ANOMALY":"60.4581","CLASSIFICATION_TYPE":"U","NORAD_CAT_ID":"50849","RCS_SIZE":"LARGE","EPHEMERIS_TYPE":"0","TLE_LINE1":"1 50849U 22001AY  22042.91668981 -.00657075  00000-0 -80708-2 0  9996","LAUNCH_DATE":"2022-01-06","FILE":"3297934","OBJECT_TYPE":"PAYLOAD","OBJECT_ID":"2022-001AY","APOAPSIS":"383.618","REF_FRAME":"TEME","MEAN_MOTION":"15.61782082"},{"REF_FRAME":"TEME","MEAN_MOTION":"15.73255151","FILE":"3297934","OBJECT_ID":"2022-001AZ","OBJECT_TYPE":"PAYLOAD","APOAPSIS":"350.973","RCS_SIZE":"LARGE","EPHEMERIS_TYPE":"0","CLASSIFICATION_TYPE":"U","NORAD_CAT_ID":"50850","LAUNCH_DATE":"2022-01-06","TLE_LINE1":"1 50850U 22001AZ  22042.91668981 -.00075574  00000-0 -53756-3 0  9990","ECCENTRICITY":"0.00020370","PERIAPSIS":"348.233","OBJECT_NAME":"STARLINK-3312","MEAN_ANOMALY":"245.5174","EPOCH":"2022-02-11T22:00:01.999584","COUNTRY_CODE":"US","REV_AT_EPOCH":"698","BSTAR":"-0.00053756000000","MEAN_ELEMENT_THEORY":"SGP4","GP_ID":"195761014","ELEMENT_SET_NO":"999","PERIOD":"91.530","DECAY_DATE":null,"RA_OF_ASC_NODE":"20.7454","TLE_LINE2":"2 50850  53.2153  20.7454 0002037  22.9337 245.5174 15.73255151  6985","SITE":"AFETR","MEAN_MOTION_DOT":"-0.00075574","MEAN_MOTION_DDOT":"0.0000000000000","INCLINATION":"53.2153","ARG_OF_PERICENTER":"22.9337","TIME_SYSTEM":"UTC","CENTER_NAME":"EARTH","SEMIMAJOR_AXIS":"6727.738"},{"RA_OF_ASC_NODE":"21.0970","PERIOD":"92.175","DECAY_DATE":null,"ELEMENT_SET_NO":"999","GP_ID":"195760860","MEAN_ELEMENT_THEORY":"SGP4","BSTAR":"-0.00793140000000","REV_AT_EPOCH":"698","COUNTRY_CODE":"US","SEMIMAJOR_AXIS":"6759.296","CENTER_NAME":"EARTH","TIME_SYSTEM":"UTC","ARG_OF_PERICENTER":"37.5886","INCLINATION":"53.2174","MEAN_MOTION_DDOT":"0.0000000000000","MEAN_MOTION_DOT":"-0.00657610","SITE":"AFETR","TLE_LINE2":"2 50851  53.2174  21.0970 0001626  37.5886  75.2543 15.62250186  6989","APOAPSIS":"382.260","OBJECT_ID":"2022-001BA","OBJECT_TYPE":"PAYLOAD","FILE":"3297934","MEAN_MOTION":"15.62250186","REF_FRAME":"TEME","EPOCH":"2022-02-11T22:00:01.999584","MEAN_ANOMALY":"75.2543","OBJECT_NAME":"STARLINK-3314","PERIAPSIS":"380.062","ECCENTRICITY":"0.00016260","LAUNCH_DATE":"2022-01-06","TLE_LINE1":"1 50851U 22001BA  22042.91668981 -.00657610  00000-0 -79314-2 0  9995","NORAD_CAT_ID":"50851","CLASSIFICATION_TYPE":"U","RCS_SIZE":"LARGE","EPHEMERIS_TYPE":"0"},{"REF_FRAME":"TEME","MEAN_MOTION":"15.73235651","FILE":"3297993","OBJECT_TYPE":"PAYLOAD","OBJECT_ID":"2022-005A","APOAPSIS":"351.058","CLASSIFICATION_TYPE":"U","NORAD_CAT_ID":"51104","RCS_SIZE":"LARGE","EPHEMERIS_TYPE":"0","LAUNCH_DATE":"2022-01-19","TLE_LINE1":"1 51104U 22005A   22042.91668981 -.00061373  00000-0 -43534-3 0  9992","OBJECT_NAME":"STARLINK-3366","PERIAPSIS":"348.259","ECCENTRICITY":"0.00020800","MEAN_ANOMALY":"36.6118","EPOCH":"2022-02-11T22:00:01.999584","COUNTRY_CODE":"US","REV_AT_EPOCH":"507","BSTAR":"-0.00043534000000","GP_ID":"195762196","ELEMENT_SET_NO":"999","MEAN_ELEMENT_THEORY":"SGP4","PERIOD":"91.531","DECAY_DATE":null,"RA_OF_ASC_NODE":"156.3466","SITE":"AFETR","MEAN_MOTION_DOT":"-0.00061373","TLE_LINE2":"2 51104  53.2169 156.3466 0002080  20.1358  36.6118 15.73235651  5074","INCLINATION":"53.2169","MEAN_MOTION_DDOT":"0.0000000000000","ARG_OF_PERICENTER":"20.1358","TIME_SYSTEM":"UTC","SEMIMAJOR_AXIS":"6727.794","CENTER_NAME":"EARTH"},{"MEAN_MOTION_DDOT":"0.0000000000000","INCLINATION":"53.2162","TLE_LINE2":"2 51105  53.2162 156.3592 0002211  17.7122  32.0981 15.73223437  5072","SITE":"AFETR","MEAN_MOTION_DOT":"-0.00054929","CENTER_NAME":"EARTH","SEMIMAJOR_AXIS":"6727.828","ARG_OF_PERICENTER":"17.7122","TIME_SYSTEM":"UTC","BSTAR":"-0.00038906000000","REV_AT_EPOCH":"507","COUNTRY_CODE":"US","PERIOD":"91.532","DECAY_DATE":null,"RA_OF_ASC_NODE":"156.3592","MEAN_ELEMENT_THEORY":"SGP4","GP_ID":"195762149","ELEMENT_SET_NO":"999","TLE_LINE1":"1 51105U 22005B   22042.91668981 -.00054929  00000-0 -38906-3 0  9999","LAUNCH_DATE":"2022-01-19","RCS_SIZE":"LARGE","EPHEMERIS_TYPE":"0","CLASSIFICATION_TYPE":"U","NORAD_CAT_ID":"51105","OBJECT_NAME":"STARLINK-3350","PERIAPSIS":"348.206","ECCENTRICITY":"0.00022110","EPOCH":"2022-02-11T22:00:01.999584","MEAN_ANOMALY":"32.0981","MEAN_MOTION":"15.73223437","REF_FRAME":"TEME","APOAPSIS":"351.181","FILE":"3297993","OBJECT_TYPE":"PAYLOAD","OBJECT_ID":"2022-005B"},{"REV_AT_EPOCH":"507","COUNTRY_CODE":"US","BSTAR":"-0.00043455000000","MEAN_ELEMENT_THEORY":"SGP4","ELEMENT_SET_NO":"999","GP_ID":"195761344","RA_OF_ASC_NODE":"156.3530","DECAY_DATE":null,"PERIOD":"91.530","TLE_LINE2":"2 51106  53.2182 156.3530 0002251  16.2343  37.3634 15.73247630  5074","MEAN_MOTION_DOT":"-0.00061297","SITE":"AFETR","MEAN_MOTION_DDOT":"0.0000000000000","INCLINATION":"53.2182","TIME_SYSTEM":"UTC","ARG_OF_PERICENTER":"16.2343","CENTER_NAME":"EARTH","SEMIMAJOR_AXIS":"6727.759","REF_FRAME":"TEME","MEAN_MOTION":"15.73247630","OBJECT_ID":"2022-005C","OBJECT_TYPE":"PAYLOAD","FILE":"3297955","APOAPSIS":"351.139","EPHEMERIS_TYPE":"0","RCS_SIZE":"LARGE","NORAD_CAT_ID":"51106","CLASSIFICATION_TYPE":"U","TLE_LINE1":"1 51106U 22005C   22042.91668981 -.00061297  00000-0 -43455-3 0  9991","LAUNCH_DATE":"2022-01-19","MEAN_ANOMALY":"37.3634","EPOCH":"2022-02-11T22:00:01.999584","PERIAPSIS":"348.110","ECCENTRICITY":"0.00022510","OBJECT_NAME":"STARLINK-3176"},{"BSTAR":"0.00015945000000","REV_AT_EPOCH":"391","COUNTRY_CODE":"US","DECAY_DATE":null,"PERIOD":"91.530","RA_OF_ASC_NODE":"157.9751","MEAN_ELEMENT_THEORY":"SGP4","GP_ID":"195756316","ELEMENT_SET_NO":"999","MEAN_MOTION_DDOT":"0.0000000000000","INCLINATION":"53.2175","TLE_LINE2":"2 51107  53.2175 157.9751 0001852  20.4882 339.6212 15.73251555  3912","SITE":"AFETR","MEAN_MOTION_DOT":"0.00021865","SEMIMAJOR_AXIS":"6727.748","CENTER_NAME":"EARTH","ARG_OF_PERICENTER":"20.4882","TIME_SYSTEM":"UTC","MEAN_MOTION":"15.73251555","REF_FRAME":"TEME","APOAPSIS":"350.859","FILE":"3297735","OBJECT_TYPE":"PAYLOAD","OBJECT_ID":"2022-005D","LAUNCH_DATE":"2022-01-19","TLE_LINE1":"1 51107U 22005D   22042.59040112  .00021865  00000-0  15945-3 0  9994","RCS_SIZE":"LARGE","EPHEMERIS_TYPE":"0","CLASSIFICATION_TYPE":"U","NORAD_CAT_ID":"51107","ECCENTRICITY":"0.00018520","PERIAPSIS":"348.367","OBJECT_NAME":"STARLINK-3368","EPOCH":"2022-02-11T14:10:10.656768","MEAN_ANOMALY":"339.6212"},{"FILE":"3297993","OBJECT_TYPE":"PAYLOAD","OBJECT_ID":"2022-005E","APOAPSIS":"351.046","REF_FRAME":"TEME","MEAN_MOTION":"15.73250758","OBJECT_NAME":"STARLINK-3362","PERIAPSIS":"348.184","ECCENTRICITY":"0.00021270","MEAN_ANOMALY":"29.4719","EPOCH":"2022-02-11T22:00:01.999584","CLASSIFICATION_TYPE":"U","NORAD_CAT_ID":"51108","RCS_SIZE":"LARGE","EPHEMERIS_TYPE":"0","TLE_LINE1":"1 51108U 22005E   22042.91668981 -.00084982  00000-0 -60581-3 0  9998","LAUNCH_DATE":"2022-01-19","GP_ID":"195762151","ELEMENT_SET_NO":"999","MEAN_ELEMENT_THEORY":"SGP4","DECAY_DATE":null,"PERIOD":"91.530","RA_OF_ASC_NODE":"156.3591","COUNTRY_CODE":"US","REV_AT_EPOCH":"506","BSTAR":"-0.00060581000000","ARG_OF_PERICENTER":"20.9638","TIME_SYSTEM":"UTC","SEMIMAJOR_AXIS":"6727.750","CENTER_NAME":"EARTH","SITE":"AFETR","MEAN_MOTION_DOT":"-0.00084982","TLE_LINE2":"2 51108  53.2162 156.3591 0002127  20.9638  29.4719 15.73250758  5062","INCLINATION":"53.2162","MEAN_MOTION_DDOT":"0.0000000000000"},{"MEAN_MOTION":"15.73334614","REF_FRAME":"TEME","APOAPSIS":"351.614","OBJECT_TYPE":"PAYLOAD","OBJECT_ID":"2022-005F","FILE":"3297864","TLE_LINE1":"1 51109U 22005F   22042.71795402  .00037044  00000-0  26562-3 0  9992","LAUNCH_DATE":"2022-01-19","NORAD_CAT_ID":"51109","CLASSIFICATION_TYPE":"U","EPHEMERIS_TYPE":"0","RCS_SIZE":"LARGE","MEAN_ANOMALY":"12.1408","EPOCH":"2022-02-11T17:13:51.227328","PERIAPSIS":"347.139","OBJECT_NAME":"STARLINK-3358","ECCENTRICITY":"0.00033260","BSTAR":"0.00026562000000","COUNTRY_CODE":"US","REV_AT_EPOCH":"505","RA_OF_ASC_NODE":"156.6037","DECAY_DATE":null,"PERIOD":"91.525","ELEMENT_SET_NO":"999","GP_ID":"195759483","MEAN_ELEMENT_THEORY":"SGP4","INCLINATION":"53.2168","MEAN_MOTION_DDOT":"0.0000000000000","MEAN_MOTION_DOT":"0.00037044","SITE":"AFETR","TLE_LINE2":"2 51109  53.2168 156.6037 0003326 347.9532  12.1408 15.73334614  5051","CENTER_NAME":"EARTH","SEMIMAJOR_AXIS":"6727.511","TIME_SYSTEM":"UTC","ARG_OF_PERICENTER":"347.9532"}];
